NORAD_CAT_ID,OBJECT_NAME,OBJECT_TYPE,EPOCH,MEAN_MOTION,ECCENTRICITY,INCLINATION,RA_OF_ASC_NODE,ARG_OF_PERICENTER,MEAN_ANOMALY,BSTAR,MEAN_MOTION_DOT,MEAN_MOTION_DDOT,TLE_LINE0,TLE_LINE1,TLE_LINE2,SEMIMAJOR_AXIS,PERIOD,APOGEE,PERIGEE,DECAYED
50830.0,STARLINK-3278,PAYLOAD,2023-11-01 13:59:13,15.08838826,0.0001426,53.2171,75.7987,91.2349,268.8807,0.0002175,3.175e-05,0.0,0 STARLINK-3278,1 50830U 22001AD  23305.58279884  .00003175  00000-0  21750-3 0  9999,2 50830  53.2171  75.7987 0001426  91.2349 268.8807 15.08838826100572,6917.884,95.438,540.735,538.762,0.0
50830.0,STARLINK-3278,PAYLOAD,2023-11-01 15:34:36,15.08841683,0.0001433,53.2173,75.5008,92.8745,267.2411,0.00024299,3.582e-05,0.0,0 STARLINK-3278,1 50830U 22001AD  23305.64903739  .00003582  00000-0  24299-3 0  9992,2 50830  53.2173  75.5008 0001433  92.8745 267.2411 15.08841683101852,6917.875,95.437,540.732,538.749,0.0
50830.0,STARLINK-3278,PAYLOAD,2023-11-02 15:25:23,15.08848765,0.0001415,53.2182,71.0407,89.0619,271.0536,0.00023903,3.519e-05,0.0,0 STARLINK-3278,1 50830U 22001AD  23306.64263435  .00003519  00000-0  23903-3 0  9996,2 50830  53.2182  71.0407 0001415  89.0619 271.0536 15.08848765100739,6917.854,95.437,540.697,538.74,0.0
50830.0,STARLINK-3278,PAYLOAD,2023-11-03 00:57:42,15.08845346,0.0001356,53.2182,69.2567,87.8377,272.277,0.00014623,2.04e-05,0.0,0 STARLINK-3278,1 50830U 22001AD  23307.04007506  .00002040  00000-0  14623-3 0  9993,2 50830  53.2182  69.2567 0001356  87.8377 272.2770 15.08845346102069,6917.864,95.437,540.667,538.791,0.0
50830.0,STARLINK-3278,PAYLOAD,2023-11-03 08:54:38,15.08838518,0.0001746,53.2175,67.7702,77.3907,282.728,-1.1106e-06,-3.06e-06,0.0,0 STARLINK-3278,1 50830U 22001AD  23307.37127979 -.00000306  00000-0 -11106-5 0  9996,2 50830  53.2175  67.7702 0001746  77.3907 282.7280 15.08838518102112,6917.885,95.438,540.958,538.542,0.0
50830.0,STARLINK-3278,PAYLOAD,2023-11-03 15:16:10,15.08840923,0.0001491,53.2187,66.5832,90.2304,269.8859,3.9155e-05,3.35e-06,0.0,0 STARLINK-3278,1 50830U 22001AD  23307.63623793  .00000335  00000-0  39155-4 0  9993,2 50830  53.2187  66.5832 0001491  90.2304 269.8859 15.08840923100881,6917.878,95.437,540.774,538.711,0.0
50830.0,STARLINK-3278,PAYLOAD,2023-11-04 13:31:35,15.08842274,0.0001441,53.2166,62.4177,86.8571,273.2586,5.6204e-05,6.07e-06,0.0,0 STARLINK-3278,1 50830U 22001AD  23308.56359990  .00000607  00000-0  56204-4 0  9997,2 50830  53.2166  62.4177 0001441  86.8571 273.2586 15.08842274101021,6917.873,95.437,540.735,538.742,0.0
50830.0,STARLINK-3278,PAYLOAD,2023-11-04 15:06:58,15.08841964,0.0001517,53.217,62.1174,76.9593,283.1569,7.2792e-05,8.71e-06,0.0,0 STARLINK-3278,1 50830U 22001AD  23308.62984026  .00000871  00000-0  72792-4 0  9991,2 50830  53.2170  62.1174 0001517  76.9593 283.1569 15.08841964102306,6917.874,95.437,540.789,538.69,0.0
50830.0,STARLINK-3278,PAYLOAD,2023-11-05 13:22:21,15.08854239,0.0001237,53.2158,57.9571,112.9921,247.1202,0.00032493,4.889e-05,0.0,0 STARLINK-3278,1 50830U 22001AD  23309.55719221  .00004889  00000-0  32493-3 0  9993,2 50830  53.2158  57.9571 0001237 112.9921 247.1202 15.08854239101177,6917.837,95.437,540.558,538.846,0.0
50830.0,STARLINK-3278,PAYLOAD,2023-11-06 13:13:09,15.08811722,0.0001287,53.2169,53.4963,85.717,274.3969,-0.00069588,-0.00011337,0.0,0 STARLINK-3278,1 50830U 22001AD  23310.55080273 -.00011337  00000-0 -69588-3 0  9996,2 50830  53.2169  53.4963 0001287  85.7170 274.3969 15.08811722101322,6917.967,95.439,540.722,538.941,0.0
50830.0,STARLINK-3278,PAYLOAD,2023-11-06 14:48:32,15.08813277,0.0001337,53.2166,53.2,79.6352,280.479,-0.00060304,-9.865e-05,0.0,0 STARLINK-3278,1 50830U 22001AD  23310.61704616 -.00009865  00000-0 -60304-3 0  9997,2 50830  53.2166  53.2000 0001337  79.6352 280.4790 15.08813277102608,6917.962,95.439,540.752,538.902,0.0
50830.0,STARLINK-3278,PAYLOAD,2023-11-07 00:20:51,15.08814773,0.000121,53.2167,51.4167,76.2361,283.8766,-0.00046404,-7.66e-05,0.0,0 STARLINK-3278,1 50830U 22001AD  23311.01448721 -.00007660  00000-0 -46404-3 0  9990,2 50830  53.2167  51.4167 0001210  76.2361 283.8766 15.08814773102664,6917.957,95.439,540.66,538.985,0.0
50830.0,STARLINK-3278,PAYLOAD,2023-11-07 11:28:33,15.08832898,0.0001645,53.2177,49.3347,78.3876,281.7301,3.7773e-05,3.13e-06,0.0,0 STARLINK-3278,1 50830U 22001AD  23311.47816577  .00000313  00000-0  37773-4 0  9994,2 50830  53.2177  49.3347 0001645  78.3876 281.7301 15.08832898102735,6917.902,95.438,540.905,538.629,0.0
50830.0,STARLINK-3278,PAYLOAD,2023-11-07 13:03:56,15.08833895,0.0001406,53.2173,49.038,78.1436,281.9714,3.0266e-05,1.94e-06,0.0,0 STARLINK-3278,1 50830U 22001AD  23311.54440525  .00000194  00000-0  30266-4 0  9995,2 50830  53.2173  49.0380 0001406  78.1436 281.9714 15.08833895101478,6917.899,95.438,540.737,538.791,0.0
50830.0,STARLINK-3278,PAYLOAD,2023-11-08 12:54:44,15.08836957,0.0001432,53.217,44.5748,99.795,260.3204,0.00025856,3.829e-05,0.0,0 STARLINK-3278,1 50830U 22001AD  23312.53801258  .00003829  00000-0  25856-3 0  9995,2 50830  53.2170  44.5748 0001432  99.7950 260.3204 15.08836957101626,6917.89,95.438,540.745,538.764,0.0
50830.0,STARLINK-3278,PAYLOAD,2023-11-09 12:45:31,15.08852969,0.0001447,53.2179,40.1162,86.5509,273.5649,0.00039598,6.022e-05,0.0,0 STARLINK-3278,1 50830U 22001AD  23313.53160951  .00006022  00000-0  39598-3 0  9990,2 50830  53.2179  40.1162 0001447  86.5509 273.5649 15.08852969101773,6917.841,95.437,540.707,538.705,0.0
50830.0,STARLINK-3278,PAYLOAD,2023-11-10 12:36:18,15.08850821,0.0001238,53.2181,35.6549,92.667,267.4464,0.00025018,3.697e-05,0.0,0 STARLINK-3278,1 50830U 22001AD  23314.52520900  .00003697  00000-0  25018-3 0  9991,2 50830  53.2181  35.6549 0001238  92.6670 267.4464 15.08850821103199,6917.847,95.437,540.569,538.856,0.0
50830.0,STARLINK-3278,PAYLOAD,2023-11-11 12:27:05,15.08845623,0.0001392,53.2183,31.1951,90.5871,269.528,0.00011338,1.517e-05,0.0,0 STARLINK-3278,1 50830U 22001AD  23315.51880888  .00001517  00000-0  11338-3 0  9994,2 50830  53.2183  31.1951 0001392  90.5871 269.5280 15.08845623103340,6917.863,95.437,540.691,538.765,0.0
50830.0,STARLINK-3278,PAYLOAD,2023-11-11 21:59:24,15.0884175,0.0001247,53.2175,29.4115,105.4006,254.7124,3.7111e-05,3.03e-06,0.0,0 STARLINK-3278,1 50830U 22001AD  23315.91625078  .00000303  00000-0  37111-4 0  9996,2 50830  53.2175  29.4115 0001247 105.4006 254.7124 15.08841750102134,6917.875,95.437,540.603,538.877,0.0
50830.0,STARLINK-3278,PAYLOAD,2023-11-12 04:20:56,15.08838994,0.0001301,53.2176,28.2224,92.9807,267.1334,5.4913e-05,5.86e-06,0.0,0 STARLINK-3278,1 50830U 22001AD  23316.18121257  .00000586  00000-0  54913-4 0  9998,2 50830  53.2176  28.2224 0001301  92.9807 267.1334 15.08838994103445,6917.883,95.438,540.648,538.848,0.0
50830.0,STARLINK-3278,PAYLOAD,2023-11-12 12:17:52,15.08846329,0.0001327,53.2177,26.7361,89.7955,270.319,0.00019923,2.885e-05,0.0,0 STARLINK-3278,1 50830U 22001AD  23316.51241043  .00002885  00000-0  19923-3 0  9996,2 50830  53.2177  26.7361 0001327  89.7955 270.3190 15.08846329102229,6917.861,95.437,540.644,538.808,0.0
50830.0,STARLINK-3278,PAYLOAD,2023-11-12 21:50:10,15.08847137,0.0001369,53.2181,24.9525,86.3334,273.7815,0.00018964,2.732e-05,0.0,0 STARLINK-3278,1 50830U 22001AD  23316.90984948  .00002732  00000-0  18964-3 0  9992,2 50830  53.2181  24.9525 0001369  86.3334 273.7815 15.08847137102281,6917.859,95.437,540.671,538.777,0.0
50830.0,STARLINK-3278,PAYLOAD,2023-11-13 12:08:38,15.08854446,0.0001594,53.2181,22.2759,87.8031,272.3143,0.00033478,5.046e-05,0.0,0 STARLINK-3278,1 50830U 22001AD  23317.50600636  .00005046  00000-0  33478-3 0  9996,2 50830  53.2181  22.2759 0001594  87.8031 272.3143 15.08854446103642,6917.836,95.437,540.804,538.599,0.0
50830.0,STARLINK-3278,PAYLOAD,2023-11-13 21:40:57,15.08858985,0.0001533,53.218,20.492,92.287,267.8298,0.00035074,5.301e-05,0.0,0 STARLINK-3278,1 50830U 22001AD  23317.90344112  .00005301  00000-0  35074-3 0  9992,2 50830  53.2180  20.4920 0001533  92.2870 267.8298 15.08858985102433,6917.822,95.436,540.748,538.627,0.0
50830.0,STARLINK-3278,PAYLOAD,2023-11-14 10:24:02,15.08834699,0.0001452,53.2182,18.1135,81.4851,278.6306,-0.00028652,-4.844e-05,0.0,0 STARLINK-3278,1 50830U 22001AD  23318.43336480 -.00004844  00000-0 -28652-3 0  9997,2 50830  53.2182  18.1135 0001452  81.4851 278.6306 15.08834699103781,6917.897,95.438,540.766,538.757,0.0
50830.0,STARLINK-3278,PAYLOAD,2023-11-14 13:34:49,15.0883011,0.0001427,53.2181,17.5193,79.2595,280.8558,-0.00035566,-5.942e-05,0.0,0 STARLINK-3278,1 50830U 22001AD  23318.56584722 -.00005942  00000-0 -35566-3 0  9997,2 50830  53.2181  17.5193 0001427  79.2595 280.8558 15.08830110102539,6917.911,95.438,540.763,538.788,0.0
50830.0,STARLINK-3278,PAYLOAD,2023-11-14 21:31:45,15.08831824,0.0001347,53.2179,16.0329,77.28,282.8343,-0.00018092,-3.165e-05,0.0,0 STARLINK-3278,1 50830U 22001AD  23318.89704905 -.00003165  00000-0 -18092-3 0  9990,2 50830  53.2179  16.0329 0001347  77.2800 282.8343 15.08831824102581,6917.905,95.438,540.702,538.839,0.0
50830.0,STARLINK-3278,PAYLOAD,2023-11-15 10:14:50,15.08840504,0.0001467,53.2174,13.6541,72.4618,287.6534,0.00016203,2.292e-05,0.0,0 STARLINK-3278,1 50830U 22001AD  23319.42696904  .00002292  00000-0  16203-3 0  9999,2 50830  53.2174  13.6541 0001467  72.4618 287.6534 15.08840504102661,6917.879,95.438,540.759,538.729,0.0
50830.0,STARLINK-3278,PAYLOAD,2023-11-16 03:44:05,15.08839803,0.0001407,53.2169,10.3835,69.8224,290.292,0.00053121,8.176e-05,0.0,0 STARLINK-3278,1 50830U 22001AD  23320.15561540  .00008176  00000-0  53121-3 0  9995,2 50830  53.2169  10.3835 0001407  69.8224 290.2920 15.08839803104045,6917.881,95.438,540.719,538.773,0.0
50830.0,STARLINK-3278,PAYLOAD,2023-11-16 08:30:14,15.08838966,0.00014,53.2172,9.4907,73.2159,286.8987,0.00039164,5.95e-05,0.0,0 STARLINK-3278,1 50830U 22001AD  23320.35433581  .00005950  00000-0  39164-3 0  9998,2 50830  53.2172   9.4907 0001400  73.2159 286.8987 15.08838966102802,6917.884,95.438,540.717,538.78,0.0
